{"type":"FeatureCollection","name":"wiltshire-ons-boundary","crs":{"type":"name","properties":{"name":"urn:ogc:def:crs:OGC:1.3:CRS84"}},"features":[{"type":"Feature","properties":{"boundary_id":"wiltshire","name":"Wiltshire","source_id":"ons-ctyua-december-2025-wiltshire","source_family":"Office for National Statistics","dataset":"Counties and Unitary Authorities (December 2025) Boundaries UK BGC","publisher":"Office for National Statistics","effective_date":"2025-12-01","licence":"Open Government Licence v3.0","source_url":"https://services1.arcgis.com/ESMARspQHYMw9BZ9/arcgis/rest/services/Counties_and_Unitary_Authorities_December_2025_Boundaries_UK_BGC/FeatureServer/0"},"geometry":{"type":"Polygon","coordinates":[[[-1.80369432511653,51.6882686220422],[-1.80261558845653,51.6853646483962],[-1.80118209999277,51.6853968758814],[-1.79935704784534,51.6808397133697],[-1.7966111764435,51.6770837535187],[-1.79520764694801,51.6772503028073],[-1.794438892386,51.6767715594123],[-1.79429696365286,51.6761706737902],[-1.79469757815475,51.6761785668885],[-1.79543727110128,51.6727936603963],[-1.79206300569655,51.6703609104223],[-1.79068876863092,51.6686033862713],[-1.78860021502991,51.6670069386902],[-1.79111922245931,51.6645845799384],[-1.79173410038421,51.6631676304732],[-1.79260624239234,51.6634137434632],[-1.79363440256521,51.6630512229468],[-1.7941076450374,51.6632998592369],[-1.79621004896754,51.662443317801],[-1.79917222668193,51.6624911364375],[-1.79865482111655,51.6614996599078],[-1.79735663061405,51.6609918342853],[-1.79511488840223,51.6570951748116],[-1.79623149331131,51.6565722879043],[-1.79598859273184,51.6542531453524],[-1.79476405051501,51.6513384005775],[-1.79501206207453,51.650731819698],[-1.79345823005739,51.6487886417384],[-1.79366097369445,51.6479333689928],[-1.79055402928339,51.6414333970568],[-1.78904372535633,51.636777412063],[-1.78993750499831,51.6348134751196],[-1.78864233032141,51.6327149882364],[-1.8063764643776,51.6327192100184],[-1.80744103689556,51.6303904020731],[-1.81431599487437,51.6245066344935],[-1.82020071250075,51.6277515934877],[-1.82126707918922,51.6269666474325],[-1.82789707256142,51.6253268111726],[-1.82976073687172,51.6237863134152],[-1.830662194028,51.6237006840024],[-1.83097441002716,51.6225206426401],[-1.83024051185372,51.6225411608344],[-1.83094828896215,51.6223582186745],[-1.8309608717282,51.6213029957335],[-1.83266914554798,51.6209840033554],[-1.83286030989455,51.6206923227558],[-1.83366530045008,51.620815033868],[-1.83336022909532,51.620459076737],[-1.83384592498893,51.620361759717],[-1.83422088918622,51.6197319879572],[-1.83536519945739,51.6196463856514],[-1.83584543152133,51.617935980171],[-1.83715215888877,51.6176161804604],[-1.83664812993534,51.6174385253954],[-1.83698611904376,51.6169527369543],[-1.83909524512719,51.6166865409984],[-1.83993216503836,51.6158054437811],[-1.83965388606595,51.614439704499],[-1.8402835454444,51.6140821647485],[-1.84097774398903,51.6140995647673],[-1.84106931454187,51.6132705834053],[-1.84168723900306,51.6131650517658],[-1.84236893956802,51.612074134751],[-1.84102795307109,51.6097691477154],[-1.84158169514721,51.6068563090756],[-1.83977744136627,51.6075300077774],[-1.83984231808655,51.6071407256686],[-1.84100849591549,51.6065857889015],[-1.84140901810948,51.6051162338145],[-1.84124810809652,51.6061190994518],[-1.84224722298681,51.6053310029582],[-1.84171738736607,51.6048870101145],[-1.84213068877932,51.6041311191667],[-1.84171671359456,51.6033860695393],[-1.84085267215045,51.603138532867],[-1.8402945286754,51.6022575116174],[-1.84100111508591,51.6019025024411],[-1.84095681679294,51.6014420808423],[-1.84010769106053,51.6006213552073],[-1.83919616589526,51.6003457788474],[-1.83983173192016,51.5998590458728],[-1.83686391626087,51.5986758160407],[-1.83515014261281,51.59887725148],[-1.83431315634182,51.5986482281012],[-1.83406062614916,51.5977085380338],[-1.83356461569327,51.5978490892861],[-1.83352963337515,51.5976257828512],[-1.83258575106747,51.5974992770406],[-1.83180132055688,51.5967364007752],[-1.83246044943554,51.5955870740292],[-1.83174970742521,51.5953985841816],[-1.83283870908122,51.5942165136727],[-1.83306369278347,51.5931434392576],[-1.83239253187626,51.5923364350844],[-1.83258687756971,51.5917388386302],[-1.83311156476952,51.5911253837347],[-1.83404220021976,51.5914037318117],[-1.83442488133505,51.5909708871173],[-1.83535698070896,51.5910863922623],[-1.83512443046312,51.590214976412],[-1.83640239088852,51.5902080470144],[-1.83696795087833,51.5898093469728],[-1.83681650516082,51.5893760193184],[-1.83771780128834,51.5879320806492],[-1.83725154576989,51.5878192205976],[-1.83758612085906,51.5872199571989],[-1.83666569634186,51.5868458475445],[-1.83698768215545,51.5864997217652],[-1.83555423397785,51.5855132462205],[-1.8343691339974,51.5855416972648],[-1.8329693895586,51.5850663106407],[-1.83218708362,51.5851867564069],[-1.8265594695214,51.5837577323358],[-1.82364637816822,51.5844434746324],[-1.82262378226936,51.5838916550901],[-1.82305417296239,51.583457085673],[-1.82316562270932,51.5830140131753],[-1.82376094102958,51.5828089760228],[-1.82375478760046,51.5821894542172],[-1.82412797398364,51.5823393197372],[-1.82489325640064,51.5818755623758],[-1.82633569186617,51.579436604817],[-1.83083698918952,51.581750364074],[-1.83262297968814,51.5807908517939],[-1.83836226585876,51.580068797953],[-1.837485448503,51.5788471761717],[-1.83846867276939,51.5785617999734],[-1.83981629238381,51.5782306088291],[-1.84089317167744,51.5788813492069],[-1.84310540516334,51.5787051357995],[-1.84293657569488,51.5770386160204],[-1.84403156375855,51.5757499883543],[-1.84464410811766,51.5739530540446],[-1.84465296504163,51.5731380669088],[-1.84393637532206,51.5719728256743],[-1.84423906491434,51.5701825820134],[-1.84667205611726,51.5696656393062],[-1.8500937439198,51.5681122133111],[-1.84972312782954,51.5672320142149],[-1.84706209540999,51.5663285223477],[-1.84652972840285,51.5648388401906],[-1.84538633589767,51.564220970854],[-1.84561462358118,51.5626414726596],[-1.84519676087142,51.5617291316559],[-1.85169433893095,51.56232465271],[-1.85217433151303,51.5627558610535],[-1.85348555063366,51.5630204201199],[-1.85473653035043,51.5626865080158],[-1.85558294508395,51.5634922013317],[-1.85587342402643,51.5629269066124],[-1.85588194159448,51.5629250288944],[-1.85773096449728,51.5633862153367],[-1.86009282557496,51.5652203530011],[-1.86104228112503,51.5643742191787],[-1.86108212404106,51.5638032189603],[-1.86056948996204,51.5636188050081],[-1.86223754923553,51.5600215173218],[-1.86512822557399,51.5595540918163],[-1.86268816969804,51.5595573680733],[-1.86025362888587,51.5590366674643],[-1.84948219810257,51.5535790650069],[-1.84920317425281,51.5533417805193],[-1.8509423448948,51.5520732432697],[-1.85373651175664,51.5505116223005],[-1.85154788766495,51.5490214060991],[-1.85040626930396,51.5467449277513],[-1.85390577104808,51.5462426745347],[-1.84925278891702,51.5444704001301],[-1.8442858880984,51.5434285274651],[-1.84423032679222,51.543093775899],[-1.84396702902847,51.5417628774876],[-1.84451735274946,51.5414911666466],[-1.84451619069434,51.540863287022],[-1.84386925201907,51.538334638888],[-1.84079949326503,51.5314844324655],[-1.83805279415268,51.5317121213082],[-1.83722568029628,51.5298338082505],[-1.83988460795566,51.5294037030181],[-1.83867438843088,51.5262031131527],[-1.83679158354573,51.5241007853827],[-1.83618946081115,51.5219451715787],[-1.8365449143619,51.5216965920588],[-1.83521636942459,51.5194442073463],[-1.83240713900704,51.5182919149432],[-1.83009405215828,51.5154033239853],[-1.82986941049203,51.513608412863],[-1.83079139197075,51.5111097373696],[-1.83473360426684,51.5115133756412],[-1.83545278408093,51.5113965816971],[-1.83551579226662,51.5109836726783],[-1.83700468095487,51.5108787237366],[-1.83752466398331,51.5129736423439],[-1.83711281561792,51.514112346803],[-1.83771390627479,51.5156966373028],[-1.83929372716568,51.5172408908958],[-1.8407566226061,51.5180359385731],[-1.84028392491382,51.5184453279155],[-1.84251058159595,51.5197863751625],[-1.84201578152392,51.5204186482798],[-1.84370065951991,51.521717411385],[-1.84259926420381,51.5229174342472],[-1.84040708927959,51.5241640818057],[-1.84202266062041,51.5253580237745],[-1.84211742950233,51.5262949000419],[-1.84276625359265,51.5257880092753],[-1.84675394639404,51.5243006177434],[-1.84285455775151,51.518204815432],[-1.84421499395272,51.5172449363903],[-1.84328974401727,51.5166184246102],[-1.84264726186648,51.5168769897715],[-1.84147747874522,51.5157079293515],[-1.84404231234914,51.5151287649575],[-1.84406640463595,51.5151245020926],[-1.84468836271337,51.5150144594251],[-1.84414329728723,51.5138358776573],[-1.84401172212199,51.5122396549663],[-1.84115271215543,51.5106028674678],[-1.84099436229666,51.5097386049053],[-1.84134376243421,51.5095340261303],[-1.83956802902983,51.5068035001798],[-1.83922419733179,51.5049821842222],[-1.83981994503306,51.5047771345917],[-1.83758492292658,51.5008374691407],[-1.83436428473948,51.5010650450709],[-1.8339582560047,51.5017945772179],[-1.83185824094334,51.5012476825932],[-1.82835038416672,51.5050713227574],[-1.82455193302021,51.503712528643],[-1.82302216373669,51.5047568633067],[-1.81345034633343,51.5070421792337],[-1.81291868761991,51.5052718124],[-1.81358198850773,51.501250834301],[-1.81139487363722,51.4995253698092],[-1.81304646792152,51.4965355956176],[-1.80947713627676,51.4940346270597],[-1.80648632637471,51.4910524993354],[-1.80378999521173,51.4893620872054],[-1.80256109156075,51.4877666826307],[-1.79841414295088,51.4849101220253],[-1.79779818188214,51.4844469549141],[-1.79779682111143,51.4844459319943],[-1.79558463375881,51.4857567703567],[-1.79319207755711,51.4861670654237],[-1.78875528146626,51.4851215212321],[-1.78360489827454,51.485192126432],[-1.77968730219755,51.4843476559614],[-1.77433053529391,51.4824545724898],[-1.77422634892064,51.4828517868258],[-1.77469337092162,51.4845124684274],[-1.7665154779322,51.4860755897284],[-1.76268276397205,51.4858565568566],[-1.75815845215808,51.4862348371618],[-1.75077478632492,51.4856429883635],[-1.74630736421962,51.485646919254],[-1.74368750275987,51.4866870377595],[-1.74006197931306,51.4867797548985],[-1.73107539996966,51.4881766827443],[-1.72629893524303,51.4885064477542],[-1.7162625568348,51.4883666335436],[-1.71573673989899,51.4883833452618],[-1.71908165367462,51.5007055393341],[-1.71175289985305,51.501182316354],[-1.7051105340584,51.5019787531067],[-1.69663850478257,51.503605392155],[-1.69615432219876,51.5031743779232],[-1.67776773811859,51.503952698146],[-1.67527714988546,51.5044853714879],[-1.66774043443428,51.5052790009542],[-1.66224911553267,51.5068854086296],[-1.65815305032696,51.5076108432478],[-1.6498785623787,51.5082994958016],[-1.6421206398883,51.5108846327591],[-1.63722723155759,51.5135904051948],[-1.63429263506371,51.512941120364],[-1.632751118765,51.5149867645527],[-1.63359424399831,51.5155358096712],[-1.6317181468003,51.5164692895976],[-1.62854114706159,51.5173850584193],[-1.62426115837487,51.5151125182965],[-1.62361435229915,51.5141703863124],[-1.61952303698079,51.51521497539],[-1.61996968576148,51.516631953931],[-1.61496746203317,51.517357112671],[-1.61120715273321,51.5168751055188],[-1.60713265975897,51.5174099477657],[-1.60693254466774,51.5170499774676],[-1.60282488305727,51.5183097246359],[-1.59805992421973,51.5186969409297],[-1.59404224673741,51.5197791157679],[-1.59412264802763,51.5201328408192],[-1.59209858381431,51.5214853057623],[-1.59003231832923,51.5217388677377],[-1.58909953857075,51.5244906341199],[-1.58791428272019,51.5248596073292],[-1.58469504578326,51.5249220601573],[-1.58538650092497,51.5236872537313],[-1.58644659380949,51.5183386783344],[-1.58806442469911,51.5131485932431],[-1.58729145664498,51.5111491998969],[-1.5869296688841,51.5065470160032],[-1.58582906593759,51.5021135957399],[-1.58264652208259,51.5009423690396],[-1.5821952316237,51.5001290853062],[-1.58202956151718,51.4994501661413],[-1.58264425609607,51.498110452161],[-1.5835050320441,51.4976744268215],[-1.58227504911474,51.4957567472824],[-1.58334124031048,51.4960034127903],[-1.58222195262179,51.4940291809756],[-1.57743912317731,51.4897571124258],[-1.57363715529591,51.4872847622052],[-1.57041424799549,51.4862956080164],[-1.56782395527219,51.4815133984191],[-1.56764242231791,51.4798439355801],[-1.56688157746218,51.4785318895629],[-1.56683051540033,51.4769303233408],[-1.56272931314913,51.4768135143023],[-1.56158295445419,51.4763785698125],[-1.56114363477899,51.4758032504456],[-1.56071441518051,51.4722103133928],[-1.55952593937496,51.4697386043729],[-1.55737876331927,51.4680148420793],[-1.55094100445813,51.4654843220126],[-1.54961125441059,51.4622287088393],[-1.54839018913458,51.4606558348025],[-1.54575538121912,51.4589911738285],[-1.5421809305857,51.4577498627395],[-1.53874054484917,51.4573559364],[-1.53459775837381,51.4561257275639],[-1.52907203495841,51.4555077462164],[-1.52888582666117,51.4541473928839],[-1.52485519258394,51.4501499762861],[-1.52402343880987,51.4474724278157],[-1.52443183322458,51.4428531831803],[-1.52405868408235,51.4409321782653],[-1.52906553612037,51.434431717291],[-1.53202897978539,51.4295018557357],[-1.52885560715788,51.4282748663506],[-1.52795924633381,51.427515849095],[-1.52786622793959,51.4267849749064],[-1.5272430081522,51.4265044314306],[-1.52697575935439,51.4257937138724],[-1.52526633300834,51.4249868789136],[-1.52663254004296,51.4239161751968],[-1.53161692896559,51.425087629604],[-1.53209388979523,51.4248034155438],[-1.53260676879648,51.4249880890503],[-1.53228950789119,51.4253381343588],[-1.53279086232489,51.4256382166681],[-1.53954583615145,51.4261297683427],[-1.53977607591135,51.4256746959446],[-1.54180167777129,51.4254560458216],[-1.54294344590078,51.4245721997331],[-1.54345194089733,51.4247678690568],[-1.54436354973337,51.423536023556],[-1.54579478430662,51.4227925588579],[-1.54947954170862,51.4223656508479],[-1.55307463016939,51.4212475218085],[-1.55362027614185,51.422398409343],[-1.55606149935947,51.4216135191527],[-1.55729586067786,51.4214840305661],[-1.55844175373837,51.4217137823927],[-1.55817934740712,51.4204848566132],[-1.56097084576664,51.4204369031111],[-1.56367662660429,51.4211281494274],[-1.5637496884926,51.4211580948462],[-1.56511865145832,51.422043433161],[-1.56569409471592,51.4218055635689],[-1.56995708778586,51.4177677098584],[-1.57113161144084,51.4164885071881],[-1.57096980348612,51.4152945956558],[-1.56965138288708,51.4151636036389],[-1.56952382259398,51.4146446602303],[-1.56679104661053,51.4143299408745],[-1.56686587820759,51.4138678523448],[-1.56573731922547,51.413827976653],[-1.56538573375861,51.4132680939781],[-1.56345703122758,51.4132531003447],[-1.56245584306992,51.411397386353],[-1.56222439427088,51.4081734511714],[-1.56049803732035,51.4085201910386],[-1.56051976506893,51.4082037565255],[-1.55986889697123,51.4080827097095],[-1.55916409824931,51.4086356712875],[-1.5570005430788,51.409286529499],[-1.55561580627192,51.4093291224518],[-1.55458307790339,51.4102847307306],[-1.55292234102159,51.4100374211089],[-1.55335611763127,51.4083438262141],[-1.55429829451022,51.4076199678863],[-1.55363900528063,51.4066984839243],[-1.55412564157476,51.4033494962764],[-1.55357951924058,51.4014876171089],[-1.55620974826654,51.3982023671271],[-1.55629865780512,51.3965919132039],[-1.55559663765941,51.3955386531602],[-1.55327026083856,51.3946815283368],[-1.54899838712939,51.3947316280628],[-1.54872176724561,51.393002521807],[-1.54710851053741,51.3932528389808],[-1.54731901989285,51.3912364322108],[-1.5465253291618,51.391052091233],[-1.54644494111376,51.3904905121358],[-1.5442647184926,51.3900960418935],[-1.54260653246696,51.3904493484291],[-1.54223325433542,51.3895893544925],[-1.53763966202054,51.3883106821983],[-1.53862582051217,51.3869276694151],[-1.5382754439315,51.3854878701875],[-1.53622181980228,51.3845846310164],[-1.53569105328383,51.3840381660687],[-1.53500579817616,51.3842872216297],[-1.53400014419579,51.3840771352329],[-1.53330140892391,51.383306093738],[-1.52886360352529,51.3813960076127],[-1.52691561701244,51.3799264486125],[-1.52825743885972,51.3792095445223],[-1.52758009975913,51.3787769165375],[-1.52521916568487,51.3780164670218],[-1.5239231951345,51.3780387240376],[-1.52315842477172,51.3785719772197],[-1.52055615611812,51.3792710843863],[-1.51690141979573,51.3787711449644],[-1.51408318818652,51.3760715629782],[-1.51352770508985,51.3720509802695],[-1.51209213970652,51.371787394855],[-1.50999338318104,51.3718521903866],[-1.50955963690965,51.3710884957419],[-1.5071108860232,51.3708648439825],[-1.50701312174098,51.3704706792252],[-1.50509300032063,51.3698548251525],[-1.50403054285229,51.3698116678133],[-1.50345653007855,51.3690906971075],[-1.50267179822088,51.3691251348321],[-1.5025014235801,51.3688069988344],[-1.50108358106894,51.3690691076753],[-1.4993077317652,51.3689771893082],[-1.49537262165059,51.3696578977458],[-1.49513407085009,51.3677061739977],[-1.49926176525848,51.3632891868515],[-1.49931364096208,51.3614963391522],[-1.50001941185201,51.3606023237435],[-1.4995806411282,51.3584804364994],[-1.50063304963128,51.3563211266337],[-1.49991700845342,51.3554629465985],[-1.49720441845636,51.3545371340725],[-1.49494646920564,51.35274829219],[-1.49363266567146,51.3523035484481],[-1.49133248677113,51.3520796677885],[-1.48951941929686,51.3505003635824],[-1.48670561172869,51.3493992475225],[-1.48561782031052,51.3476506886645],[-1.48650417201658,51.3452653534649],[-1.48987457270353,51.3422440684038],[-1.49285226754201,51.3381118410851],[-1.49737036101329,51.3333408995748],[-1.49755595196943,51.3311791522069],[-1.49828689474575,51.3293617167329],[-1.49981724308548,51.3303622066179],[-1.51139745176012,51.3349869425858],[-1.51434481173933,51.3372501279253],[-1.51622806154012,51.3393521212024],[-1.51675355038969,51.3389250189527],[-1.52118110338468,51.3384043150084],[-1.52267542397853,51.3386103909276],[-1.52672045733715,51.3382686544366],[-1.52750793808987,51.3384441165574],[-1.52848968781777,51.3341478061767],[-1.5271984051527,51.3315227311942],[-1.52828306036193,51.3305370069726],[-1.53107636552673,51.3291764163245],[-1.53198432034265,51.3279815175202],[-1.53248946975416,51.3209256830485],[-1.53356185391502,51.3162235794285],[-1.53003723877389,51.3150081657994],[-1.52775751374727,51.3128895620923],[-1.52697073181652,51.3114044928657],[-1.527101887308,51.3082803159915],[-1.52522501856312,51.3070668975567],[-1.52593486574345,51.3060699346433],[-1.52650476868586,51.3043525574384],[-1.52620654104773,51.3037530280058],[-1.52799920772543,51.2998286107947],[-1.52577707482094,51.2992021676174],[-1.5264389671819,51.2976205470131],[-1.52552276334556,51.297130737687],[-1.52265593540255,51.2971129890411],[-1.52147254902644,51.2976734015447],[-1.51984596168816,51.2969114272418],[-1.51942047349176,51.2960815235808],[-1.52023973494512,51.2950354247026],[-1.52245360209999,51.2942628782707],[-1.52421757725432,51.2931632256437],[-1.52268277425891,51.2896643221379],[-1.5227771840447,51.2870633235997],[-1.52975714353346,51.2864297130994],[-1.53445641522733,51.2871210648081],[-1.53668298047209,51.2852576630539],[-1.54256597225392,51.2813267148508],[-1.54286149064517,51.2801153871915],[-1.53679353013142,51.2782334687368],[-1.535903157707,51.277314473257],[-1.53605893889434,51.2768234973534],[-1.53690525965942,51.2767782859851],[-1.53749558406165,51.2738217082486],[-1.53713110938458,51.2736853000857],[-1.53709344044598,51.270750250242],[-1.53935421303448,51.2664281521451],[-1.53951294931363,51.2639895119802],[-1.54059897066636,51.2608311895023],[-1.53711867393393,51.2608578750923],[-1.5364496849353,51.2618227733334],[-1.53445675327281,51.2617582269568],[-1.53055011205573,51.2626445473252],[-1.5298179468057,51.2608018456309],[-1.53125121428498,51.2576999410884],[-1.53123161520485,51.2553349574448],[-1.5330186957226,51.25334675676],[-1.53602175216297,51.2485550446692],[-1.53962018950432,51.247365833584],[-1.54268611558918,51.2456211569305],[-1.54425423158896,51.2451105853465],[-1.54599458392582,51.2452905286963],[-1.54832920079631,51.247510459589],[-1.54883964397102,51.247990400945],[-1.55116236490341,51.2488065330237],[-1.55676794742515,51.24919116371],[-1.56380791961242,51.2523067124957],[-1.56658351667969,51.2528885498041],[-1.57234854693812,51.254839433156],[-1.57427651516856,51.2546134789698],[-1.57757201593558,51.2555795581159],[-1.57780042362018,51.2547369413732],[-1.57897989328238,51.2553436598619],[-1.5819376071067,51.2547077430548],[-1.58423312009483,51.2547168176823],[-1.58534868552227,51.2539923632939],[-1.5880572047414,51.2531549454714],[-1.59275126014195,51.2530076749832],[-1.60018632725542,51.2535243103417],[-1.60074152461692,51.2517880132814],[-1.60022661967832,51.2514380690411],[-1.60073226446486,51.2507161741365],[-1.60370559420908,51.2518484271323],[-1.60759078945477,51.2527924061638],[-1.60664129481898,51.2521289380346],[-1.6069156071173,51.250660210088],[-1.6111087815692,51.2456076398054],[-1.61039319584532,51.2429796318858],[-1.61355637623441,51.2414416881653],[-1.6150521269824,51.2414169523564],[-1.61661490281445,51.2419620636211],[-1.61941475035327,51.2412049882368],[-1.61987644744949,51.2398317841341],[-1.6212596142917,51.2384743307581],[-1.62199655699091,51.2349996645238],[-1.62330470432582,51.2333664235103],[-1.62557784876113,51.2317425454207],[-1.62835959025704,51.2261949999577],[-1.63095946565272,51.2239542917459],[-1.63139886481203,51.2216114290796],[-1.63290709899142,51.2195008583313],[-1.63362097701599,51.2175905577841],[-1.63746617482792,51.2175866047912],[-1.65019524392879,51.2199786000054],[-1.6502280809463,51.2201791648616],[-1.65349635758962,51.2204676453189],[-1.66006003617549,51.2188979745127],[-1.65984619067545,51.2183910620884],[-1.66213437211251,51.2177835176203],[-1.66673627010715,51.2169640878808],[-1.66677152902693,51.2174443201397],[-1.67272614672202,51.217259739457],[-1.67306498727448,51.2171212580374],[-1.673018796733,51.2159576105315],[-1.67370695016881,51.215832686977],[-1.68438954379405,51.2149249689754],[-1.68452373654858,51.2151879149094],[-1.68688772321557,51.2151511072558],[-1.68978806224739,51.2147685862798],[-1.69084528871649,51.2097519725584],[-1.69093499597272,51.2095160039174],[-1.69094296659371,51.2094950391057],[-1.69114636822514,51.2073347554221],[-1.69409695143106,51.2040432388922],[-1.69279238690395,51.2030498037815],[-1.68569968412523,51.1993235080748],[-1.68271141982214,51.1970071985231],[-1.67697921258832,51.1934010011639],[-1.67055365426354,51.1906126031359],[-1.66882042147437,51.1907592185769],[-1.66938682602309,51.184817600847],[-1.66943552988017,51.1842853448693],[-1.6701096431957,51.1839326852026],[-1.66929966944621,51.1817368665774],[-1.67227119754693,51.1785463705247],[-1.67152042316677,51.1781849419664],[-1.67027339492248,51.1766608710076],[-1.66685051071712,51.1699409131214],[-1.65704022775114,51.1593063778637],[-1.65404004725731,51.1562528472999],[-1.6546955325542,51.1520528533094],[-1.65977743428859,51.1421572279515],[-1.65896154098369,51.1415372972756],[-1.65833118867619,51.1395958663246],[-1.65872223142912,51.1375323679324],[-1.65948531927351,51.1356219643986],[-1.66129756386646,51.1338737102734],[-1.66188187592635,51.1327181681855],[-1.66302329024227,51.129648811537],[-1.66297542061049,51.1271919933478],[-1.65497749518986,51.1270965856553],[-1.64065952476035,51.1254125340399],[-1.63398965914999,51.1215992369488],[-1.62704885352562,51.1181772015631],[-1.6263412733448,51.1173368726114],[-1.6289595065215,51.1139667525811],[-1.63079543039735,51.1128864833621],[-1.63036767893682,51.1121942647501],[-1.63082788248133,51.1109673862166],[-1.62837195981345,51.1076289158613],[-1.62837059742198,51.1058412723098],[-1.62681794815215,51.1038967241038],[-1.62710192526472,51.1027573341416],[-1.62918922482582,51.1006999075019],[-1.63094580355109,51.0996527487241],[-1.63402006050805,51.0963933935459],[-1.63635769065595,51.0928718855086],[-1.63619653164643,51.0924275309864],[-1.63731479886634,51.092202331828],[-1.63409763955668,51.0854626463909],[-1.63167172401347,51.08263590495],[-1.63202640882598,51.0824120365388],[-1.63162755731067,51.0819758293382],[-1.63118686772864,51.0821716396105],[-1.62900550993359,51.0810551967283],[-1.62780726975054,51.0781558152831],[-1.62918358678467,51.0754092932247],[-1.62819172587989,51.0727066840249],[-1.62783192208653,51.0688324134602],[-1.63008353642759,51.0654358227372],[-1.6299890197075,51.0642748087574],[-1.63285477327107,51.0489323965238],[-1.63243665699541,51.0476829603216],[-1.63363123357527,51.0465267093765],[-1.6340140680045,51.0420505768198],[-1.63497677895496,51.0408468091911],[-1.63207240774326,51.0360101488253],[-1.63237574994688,51.032779708019],[-1.6288496217057,51.0325176736651],[-1.62244018616437,51.0331068673957],[-1.61945709662409,51.0330594495547],[-1.61928771907133,51.0316326614037],[-1.61464119542135,51.0299583808739],[-1.61354319271039,51.0284143535904],[-1.61144648100765,51.0272824253963],[-1.60840761493852,51.0262993309539],[-1.60284904778048,51.0255037047688],[-1.59939671455144,51.0237293750411],[-1.60057891229807,51.0221726092452],[-1.60303698396673,51.020751839502],[-1.60562660154548,51.0200241157757],[-1.60531807272462,51.0170391185279],[-1.60493898141555,51.0160189969005],[-1.6030330370975,51.0140754850606],[-1.60160992310911,51.0136934142699],[-1.59956834632138,51.0125686758498],[-1.59757112603975,51.0105975054398],[-1.59757614725212,51.0080271227843],[-1.6007263805259,51.0071458793307],[-1.60523969750247,51.0070400752879],[-1.60695900957557,51.0079054539597],[-1.60852092677783,51.0097123277889],[-1.60910357724982,51.0098542887939],[-1.60869722459708,51.0082773651351],[-1.61025328061361,51.0081936259621],[-1.61040638407828,51.006849136606],[-1.6149102782794,51.0066386133966],[-1.60965404429976,51.0059233736747],[-1.60778814134982,51.0041918398571],[-1.60520812733767,51.0024861748932],[-1.60607793189018,51.0018978050281],[-1.60678283902277,51.0016214006993],[-1.61073262701294,51.0017092323811],[-1.61437015640077,51.0033749713072],[-1.61723097131332,51.0041820413101],[-1.62020172596836,51.0034129218372],[-1.62381622542758,51.0018149489013],[-1.62440731397146,51.0011568097972],[-1.62625817260451,51.0010332751472],[-1.62715825161407,51.0000379997746],[-1.62880469880737,50.9990945293125],[-1.62837228375235,50.9986273035798],[-1.62880157700803,50.998235718189],[-1.62816139980366,50.9980960530065],[-1.62837999082255,50.997664245019],[-1.62736084859525,50.9969892837162],[-1.62744837703295,50.9958474905462],[-1.62542389911735,50.9940263377668],[-1.62580242315679,50.993911578882],[-1.62492276617251,50.9911525584158],[-1.62521299074386,50.9903307344927],[-1.62454206078338,50.9897809205693],[-1.62392019075954,50.9898625296758],[-1.62108370325234,50.9886166716587],[-1.6204625611327,50.9886101627651],[-1.61895853606211,50.9874001051109],[-1.61930481762938,50.9870433318777],[-1.61892579054751,50.9863550735148],[-1.61930818771762,50.9848932432106],[-1.62018063286774,50.9843016762895],[-1.61973084457042,50.9830349737378],[-1.61710279033122,50.9816827423076],[-1.61582793761957,50.9804795011109],[-1.61413566935876,50.9799927387675],[-1.61442566755805,50.9794812137995],[-1.61094498822405,50.9799354909617],[-1.60735745526564,50.9799619824226],[-1.60456474217043,50.9793408981015],[-1.60292975190204,50.9785041787189],[-1.60508426491196,50.9769082060085],[-1.60500121062471,50.9751998898915],[-1.60775701274123,50.9736340442837],[-1.608647093353,50.9722935478852],[-1.61074790980788,50.9720859127493],[-1.61223444374356,50.9712788311629],[-1.61355950242816,50.9679432227291],[-1.61479209857351,50.9661023888843],[-1.61616039173624,50.9650791370634],[-1.6168077376468,50.9625242402766],[-1.61975086537986,50.9585669216435],[-1.6233992105681,50.954637271241],[-1.62849047554587,50.9571247213336],[-1.63496498191182,50.9592422023824],[-1.64037797646764,50.9554470485794],[-1.64109747974066,50.9531614997223],[-1.64171475652347,50.9524961592106],[-1.64637611512953,50.9494654489152],[-1.64964750076099,50.9485059053941],[-1.65184975732486,50.9471699215018],[-1.66165999760679,50.9452778916326],[-1.66729990896977,50.9470295485094],[-1.66918174980006,50.9472327495004],[-1.67688169474342,50.9496669661644],[-1.68571150534696,50.952919266864],[-1.68929909408825,50.9546374578365],[-1.69765138187314,50.9604324307577],[-1.70102682801212,50.9627251499175],[-1.7096342979225,50.9712302507492],[-1.71650528418105,50.9741740919375],[-1.71871479849167,50.9760013003204],[-1.71963699051093,50.9761486810894],[-1.71957103083064,50.9767862616202],[-1.72230272845719,50.9767858661144],[-1.72618755090224,50.9773437104368],[-1.72988836238337,50.9773135840688],[-1.7337151149269,50.9764375973118],[-1.73525786144845,50.9764086542869],[-1.73980465688777,50.976616761267],[-1.7429455316049,50.9771138569324],[-1.74393908566884,50.977474828043],[-1.74393434734832,50.977821913712],[-1.74710160601678,50.9779412043934],[-1.75440191299908,50.9778920948413],[-1.75432000000421,50.9804475451645],[-1.76563777162906,50.9829383880121],[-1.76984028866834,50.9834953283364],[-1.76998545640323,50.9838283279241],[-1.77535468535245,50.9847119950878],[-1.77579010150367,50.9848117222916],[-1.77561034257803,50.9851611709065],[-1.78383389110035,50.9868988282702],[-1.78794552933072,50.9881454646476],[-1.79095155199411,50.9900861490041],[-1.79601327697333,50.9902003175257],[-1.80031396441254,50.9913947995553],[-1.80567034029296,50.9916304169587],[-1.80758352883346,50.9920455127531],[-1.81542176154033,50.9859226497394],[-1.8198555870123,50.99025766732],[-1.82154485161318,50.9929912851671],[-1.82741235465669,50.9972732303582],[-1.83581730052681,51.0094733410558],[-1.84225697146586,51.0085268910689],[-1.85280422195812,51.0050277115547],[-1.85367968480751,51.0044694617494],[-1.85589067085628,51.0015829815788],[-1.86204901646349,50.9966409664774],[-1.86682807097055,50.9908221965875],[-1.86933826484186,50.9889123632207],[-1.87391116606953,50.9845006387859],[-1.87418086391071,50.9877269655904],[-1.87458763091855,50.9881546039113],[-1.87509946987921,50.9917359176625],[-1.87463244705956,50.995852071782],[-1.87464866765866,51.0035665072281],[-1.87436730532502,51.0053664852977],[-1.87378631074578,51.0062354386915],[-1.87448162937032,51.0063305721162],[-1.87543094513277,51.0046985996689],[-1.87923110457618,51.0039480448325],[-1.88220019058876,51.0027074122827],[-1.883308798318,51.0021717395536],[-1.88528033430888,51.000250245751],[-1.88674132171074,50.9995277353679],[-1.8887953074767,50.9999685813319],[-1.89157255952682,50.9994442187606],[-1.89246702171816,50.9996177358095],[-1.89534236502805,50.9992309155164],[-1.89801710718854,50.9986227052473],[-1.90329822314477,50.9993385472223],[-1.91230741065381,50.9993555644449],[-1.92033530732212,50.9974234411743],[-1.92374264299267,50.9973178464691],[-1.92787590068259,50.9976972344344],[-1.93552800529566,50.9927569875552],[-1.93657549974883,50.991518433713],[-1.94993597428249,50.9823105862036],[-1.95366605912478,50.9877575413051],[-1.95683008078171,50.9898002876488],[-1.96265916889985,50.9918476670998],[-1.96533372970933,50.9920295090997],[-1.96796636499561,50.9906275741941],[-1.97187094521569,50.9895621132702],[-1.97287227811809,50.9875755271582],[-1.9751541299158,50.9869446971167],[-1.97737877442283,50.9857553059853],[-1.97951910842621,50.9855528409166],[-1.98033198518703,50.984924877172],[-1.9834190332521,50.9844116376737],[-1.98526594366025,50.9847136656343],[-1.98604870075438,50.9839951052545],[-1.98587113057714,50.9832566446569],[-1.98690804333085,50.9823607828836],[-1.98975703214502,50.9815510508573],[-1.99006870178734,50.9809394286747],[-1.98918910423385,50.9788868808085],[-1.99023271554984,50.9785646030385],[-1.9911699657865,50.9771389650091],[-1.99227120571804,50.9768452688825],[-1.99281214384198,50.9761457107872],[-1.99383003479632,50.9757710651012],[-1.99896594065475,50.9753497647555],[-2.0007093102932,50.9748309189923],[-2.00274894535039,50.9748380792366],[-2.00385704410362,50.9745017363199],[-2.00698955859824,50.9754270585509],[-2.00990800858108,50.9752389017567],[-2.01233621217303,50.9741533060852],[-2.01409528847284,50.973874344262],[-2.01483141535065,50.9731647675374],[-2.01742677097208,50.9721611442136],[-2.02027983116701,50.9722267502436],[-2.02194928657858,50.9726148854821],[-2.02372384565067,50.9725111529851],[-2.02896709194588,50.9711791308418],[-2.03285418249091,50.9718515937989],[-2.03445411519183,50.9724248460041],[-2.03720818978598,50.9719698379577],[-2.0383385618231,50.9714093244973],[-2.03853880764999,50.9707492383055],[-2.04122533417257,50.968067688471],[-2.05107811702422,50.9661519906647],[-2.05155681539395,50.9663631290516],[-2.05331966022464,50.9662336791145],[-2.05832769273258,50.9636432468432],[-2.05940456099867,50.9628126616113],[-2.05842730067148,50.9613402638344],[-2.05860016507045,50.9606315044673],[-2.05931817326495,50.9597895051793],[-2.06237255011494,50.9598867778016],[-2.06253227889928,50.959061151801],[-2.06427242931593,50.9571852710729],[-2.06486167400825,50.9539620839222],[-2.06728311124988,50.951820489223],[-2.06750953334533,50.951900456258],[-2.06831287946984,50.951194013835],[-2.0828636408361,50.9513383638335],[-2.08388367257894,50.9509680603928],[-2.08526986155221,50.9492449636613],[-2.08736955546833,50.9499510826049],[-2.08921915749025,50.9501556354562],[-2.09091615618312,50.9495077736127],[-2.09414534539027,50.9491347331766],[-2.10025342481766,50.945070453634],[-2.10179195110563,50.9449855115398],[-2.10286096073371,50.9456077467533],[-2.10265524868261,50.9465701100177],[-2.10395868936531,50.9489168248301],[-2.10555694487316,50.9500089077555],[-2.11052117612026,50.9554887150899],[-2.11246432539494,50.9565704853684],[-2.1156415727695,50.9575034809567],[-2.11946160180189,50.9596801913158],[-2.12067094650373,50.9615394737647],[-2.12152332676104,50.964015097109],[-2.12151320695396,50.9650348199068],[-2.12087838430051,50.9657153796038],[-2.12065165846279,50.9694078085271],[-2.12315689150962,50.9694682014224],[-2.12297387876581,50.9718737884423],[-2.12245466632562,50.9737582318509],[-2.11976435895004,50.9781906477164],[-2.12196636501618,50.9781676791314],[-2.12234357045406,50.9786043637367],[-2.12685369292968,50.9787388667373],[-2.13168971499485,50.9797702704663],[-2.13839642363432,50.9822875032071],[-2.14357724795926,50.9849645518955],[-2.14814724571989,50.9862779616736],[-2.15252331580858,50.989157905176],[-2.15967969642927,50.9928750115139],[-2.16183376845582,50.9935152540754],[-2.16150821146251,50.9941787967204],[-2.16358339550387,50.9944460269826],[-2.16362411281127,50.9961730261612],[-2.16450877655411,50.9961043373649],[-2.16711806380049,50.9981283789882],[-2.16930637079749,51.0007095993413],[-2.17182973581188,51.0010290010506],[-2.17257990630718,51.0011004609978],[-2.17299393474764,51.0021773910293],[-2.17558115906047,51.0046927976843],[-2.17660070596298,51.006844095643],[-2.17814287662572,51.00832394434],[-2.17626994613244,51.0116950184399],[-2.17639974127222,51.0128395356306],[-2.17880111193227,51.01416583235],[-2.18524534626536,51.0157977592213],[-2.18373164187011,51.0176641554768],[-2.18860363886937,51.0185315491552],[-2.1888536075887,51.0252814826035],[-2.1902974819213,51.0272736113599],[-2.19024870023207,51.0285928498785],[-2.18928987191419,51.0295017248482],[-2.18915776359103,51.030677222113],[-2.19055279963634,51.0321577679528],[-2.19206830063921,51.0362614863524],[-2.19331116982019,51.0377514206219],[-2.19482085821916,51.0388723954882],[-2.1952677004174,51.0396489346677],[-2.19623655323234,51.0400438652059],[-2.19816555821445,51.0416240416916],[-2.2015483486825,51.042741103148],[-2.20150040741061,51.0432430622054],[-2.20541553869097,51.0427856157034],[-2.20720019297576,51.0457103209657],[-2.20847336601685,51.0465092584443],[-2.2105944263995,51.0470980362351],[-2.21248834812353,51.0500988956989],[-2.21533404074168,51.0518480569717],[-2.21713278135482,51.0536107902938],[-2.21801065382418,51.0551843238202],[-2.22319186938032,51.0565182252387],[-2.22585803636724,51.0575714770083],[-2.22773604178981,51.060239405141],[-2.23881044330549,51.0678106318389],[-2.23904132763155,51.068662707128],[-2.2401934775956,51.0699241923208],[-2.24472658346128,51.0723113727304],[-2.24776312299275,51.0721897802142],[-2.25131736590034,51.0708365076277],[-2.26329196156353,51.0692663496751],[-2.26734725514729,51.0690900625232],[-2.26859581115027,51.0687257135046],[-2.28310577602687,51.0751633454217],[-2.29126928580832,51.0770754744119],[-2.29326546139102,51.0769392357868],[-2.29868124048164,51.0784865655427],[-2.30021182103599,51.0785464711294],[-2.30334991693905,51.0792622112128],[-2.30643403771606,51.079557207222],[-2.3094719552676,51.0791508754863],[-2.31085229031617,51.080253327326],[-2.3134756699191,51.0798811508053],[-2.31695851658452,51.0798376797109],[-2.32054011725584,51.0809922199753],[-2.32436940777008,51.080271187886],[-2.32586314227273,51.0796783386233],[-2.32635911180971,51.0800212634068],[-2.32712968724146,51.0797646144671],[-2.32737880550919,51.0800696525866],[-2.32753056583892,51.0825411859021],[-2.32880578075713,51.0835824660796],[-2.32914039662606,51.0852585336848],[-2.33049149886953,51.0853105478904],[-2.33570549062736,51.0866588790557],[-2.3371214059259,51.0867797629125],[-2.33901785904749,51.0864487673714],[-2.33939936556395,51.087069921724],[-2.34041607989121,51.0868844780433],[-2.34067028112471,51.0874808278481],[-2.34161380141435,51.0878251653605],[-2.34532416408803,51.0883132838255],[-2.34705123241377,51.0882362557167],[-2.35350895533262,51.0945420150283],[-2.35440741527356,51.0964483331067],[-2.36011195805332,51.0993057039226],[-2.36086958335645,51.0990175000391],[-2.36252944244235,51.1016236717414],[-2.36283505944497,51.1034328719811],[-2.36345167494137,51.104304028717],[-2.36229136964402,51.1053354984734],[-2.36217224498238,51.106910396176],[-2.3607774994909,51.1088381187084],[-2.36261449381485,51.1124967807431],[-2.3634514988492,51.1133834347874],[-2.36288304653754,51.1157753515293],[-2.36558992950093,51.1149899554489],[-2.3645276284756,51.1188788391385],[-2.36370643753863,51.1194667963085],[-2.36165685920412,51.1197537134942],[-2.36114326991309,51.1202129589293],[-2.35951581217653,51.1205839362462],[-2.35765581820077,51.1208081717983],[-2.35732784273748,51.1203505252851],[-2.3567862449867,51.1203306028532],[-2.3525385965713,51.1228109344574],[-2.3508098487099,51.1232226381254],[-2.35021296854431,51.1228916316959],[-2.34930926935851,51.1229924088224],[-2.34745979802922,51.1236965832764],[-2.34652959550374,51.123706533048],[-2.34453924740452,51.1246781592988],[-2.34318642064104,51.1274409417615],[-2.34403167271337,51.1286901676178],[-2.34630465392582,51.1305106822478],[-2.34586192692829,51.1333624818332],[-2.34130840185291,51.1353549150422],[-2.33263867583441,51.1376324928122],[-2.33216929828985,51.1379832065353],[-2.33089592370102,51.1410021033337],[-2.33228701782695,51.1449576115235],[-2.32886949618416,51.1484597875267],[-2.32241355297634,51.1540870292141],[-2.31952682367359,51.1582546620016],[-2.31699185708717,51.1593513536101],[-2.31625536830114,51.1599827923197],[-2.31627665277165,51.1605780210757],[-2.31531646727102,51.1609169109905],[-2.31272938355703,51.1630244365177],[-2.31122693091593,51.1671450139928],[-2.31008908661748,51.16842330337],[-2.30888450480031,51.1693408007059],[-2.30565953589558,51.1706926692183],[-2.30386510790655,51.1727646664237],[-2.29846468216909,51.1753224433337],[-2.29731465862568,51.1782262065352],[-2.29778410114708,51.1800351395672],[-2.29443643133816,51.1825074747257],[-2.2916292325817,51.1856599488048],[-2.2911349245425,51.1882263315958],[-2.28819908771954,51.1880780533194],[-2.28812340803753,51.1895046551005],[-2.2890539135337,51.191159568721],[-2.28813597556845,51.1916844089772],[-2.28845815815341,51.1922331009267],[-2.28478196798957,51.1932449281648],[-2.28496218035891,51.1947564207278],[-2.28411488196035,51.1956006880264],[-2.28456029034064,51.1972534292489],[-2.28134099376229,51.1974374861848],[-2.28086696323,51.1978560423113],[-2.28085386437903,51.1990694498813],[-2.2803573012186,51.1992883616258],[-2.27984028560917,51.2017533428225],[-2.27955836769115,51.2020445522453],[-2.27864592671534,51.2017647452354],[-2.27649686919151,51.205683466201],[-2.27591626412299,51.2055373711605],[-2.27465746567692,51.206640965493],[-2.2748055548711,51.2069895076209],[-2.27295358580933,51.2084982188123],[-2.27330016113835,51.2094874188003],[-2.27192145068105,51.2096594155176],[-2.27136922926502,51.2109338591254],[-2.26954142335901,51.2125800976151],[-2.26876391143578,51.2139548573061],[-2.26666588045607,51.2155785665525],[-2.26678367166402,51.2166330422061],[-2.26945861383037,51.217702590856],[-2.26975854518045,51.2188933172786],[-2.26907445685471,51.2204671196122],[-2.26766937943543,51.2211373673097],[-2.26762443697445,51.221854210553],[-2.2681872894478,51.2223382963428],[-2.26807982164214,51.224020647135],[-2.26709109100762,51.2264235676709],[-2.26380510672893,51.2310376099366],[-2.26332437295175,51.2326050873241],[-2.26266973132941,51.2336073464418],[-2.26376413083993,51.2343728323635],[-2.26195989328333,51.2359747586652],[-2.26078894421961,51.2391209559781],[-2.25785530244556,51.2416982516164],[-2.25470190877822,51.2431735983117],[-2.25499639688267,51.2433257731804],[-2.25243166923318,51.2463724610563],[-2.25283610022268,51.2473706162587],[-2.24815308254706,51.2510376998551],[-2.24534123488723,51.2538761361828],[-2.24780708460812,51.2564785686097],[-2.24812003344528,51.2581719593796],[-2.24958324766784,51.2589664647533],[-2.2489248734805,51.2593805780751],[-2.24860549417826,51.2602085557029],[-2.24892148988982,51.2603445204907],[-2.24791935385094,51.2608026009508],[-2.24796580431171,51.2614373338206],[-2.24442667002297,51.2631324064279],[-2.24512429844961,51.2641975247102],[-2.24471206596068,51.2675254617302],[-2.2451717146596,51.2725213515059],[-2.24739629602304,51.2753985661605],[-2.24716542231581,51.2772343395188],[-2.24780544129695,51.2792120957539],[-2.25061650411547,51.2828056417628],[-2.25105858124607,51.2852550337059],[-2.25349723752292,51.2898347400343],[-2.25558431678292,51.2894246776809],[-2.25743829242639,51.2916838753467],[-2.26098211583715,51.2907075791446],[-2.26528664579718,51.2928586708875],[-2.26298948756089,51.2951648870138],[-2.26547401276139,51.2962401559072],[-2.26723503655217,51.2959546829013],[-2.2683493688164,51.295057127134],[-2.26984869724679,51.2945728710492],[-2.27287928752386,51.2948653548447],[-2.27583424548312,51.2934951439609],[-2.27747744451219,51.2932097939334],[-2.2788765035596,51.2923890533364],[-2.27997259712106,51.2922300157612],[-2.27970592624821,51.2931748142386],[-2.2806992130006,51.2935455839419],[-2.27966693459891,51.294071423912],[-2.27996092516989,51.2947729745501],[-2.27949650254303,51.2955203885368],[-2.28017733212615,51.2970968520414],[-2.28149217794617,51.2986699869587],[-2.28124747180206,51.2989933862644],[-2.28052536964052,51.2988962391256],[-2.2798624249235,51.2993069369727],[-2.27983443479367,51.3003466998311],[-2.27882953655144,51.300939246044],[-2.2782777031628,51.3024480657267],[-2.27682207558483,51.3039507529828],[-2.2771043204201,51.3044394269392],[-2.27857589889695,51.3049479321968],[-2.27838764208442,51.3054597537689],[-2.28048209361842,51.3063584415387],[-2.28141607362537,51.3066295537095],[-2.28226179451781,51.3063807756664],[-2.28122384786801,51.307145076376],[-2.2820008169859,51.307565198966],[-2.28364669772786,51.3077928525764],[-2.28323789717528,51.3083134896491],[-2.28471363146949,51.3086281333442],[-2.28512005576167,51.3095280429277],[-2.28327660200362,51.3107725069351],[-2.2815572800075,51.3109141934987],[-2.2792122667527,51.3103309223962],[-2.27819265985747,51.3106326958467],[-2.27681145409453,51.3104687703673],[-2.27580424817015,51.3123657371686],[-2.27366359522918,51.3128455789038],[-2.27195450640093,51.3142540530138],[-2.27312242932588,51.3169092908103],[-2.27470870961274,51.3177427503609],[-2.27551931229617,51.3186804946257],[-2.27513689376268,51.3190302682426],[-2.2723312776516,51.3184999903077],[-2.27520881641401,51.3221871333338],[-2.27309487103777,51.3228790451051],[-2.2751029068903,51.3246143067755],[-2.27493751796668,51.3250345839523],[-2.27774724630575,51.3257041230591],[-2.27841602486037,51.3254661159244],[-2.27776286540667,51.3244911635403],[-2.27926673490219,51.324714114562],[-2.28126467821412,51.3240358537084],[-2.28215792531834,51.3253078425634],[-2.28516208863559,51.3244553914189],[-2.28909082429693,51.3252720476245],[-2.28848294251643,51.3258139824203],[-2.28862426861483,51.3268368832476],[-2.28724200923639,51.3284237426696],[-2.28843893324608,51.3297714366215],[-2.29058567422108,51.3306202872132],[-2.29507910391091,51.3309830903892],[-2.30011667405257,51.3322390286626],[-2.30092693165784,51.3332225310719],[-2.30097202042034,51.3339624106194],[-2.29955212038986,51.3361142153644],[-2.29859365460176,51.3361849820937],[-2.29612114621491,51.3372073172601],[-2.29485982602042,51.3368445490421],[-2.29444044215702,51.337262795677],[-2.29433946367161,51.3376290924358],[-2.29555416505603,51.3378813260132],[-2.29690172837345,51.3387078936734],[-2.2965546116927,51.3391907774846],[-2.29519827209187,51.3396878045487],[-2.29501737168016,51.3401423979252],[-2.29640906948892,51.3426619841087],[-2.29794284572074,51.3431921414442],[-2.29910062680421,51.342284279084],[-2.29991748730629,51.3427173931368],[-2.30213191236199,51.3417598252433],[-2.30318344805589,51.3409207782595],[-2.30595161194959,51.3415923433708],[-2.30850893780664,51.3397667051259],[-2.31066594897741,51.340384854567],[-2.31150859288811,51.3412636343837],[-2.31633916166946,51.3436238944862],[-2.32053198549714,51.3468434310544],[-2.32383431578052,51.3477302890266],[-2.32633978996769,51.3475570745996],[-2.32755420928157,51.3471522892164],[-2.32888728571324,51.3474598492018],[-2.33368218168486,51.3461829334915],[-2.33859901687133,51.3462710551733],[-2.34092706747709,51.3445751862577],[-2.34245167877331,51.3449793811627],[-2.34358862100065,51.3449508804519],[-2.3443088497928,51.3454568368331],[-2.34346539977297,51.3467082805366],[-2.34368466784244,51.3470430256846],[-2.34271292112545,51.3472751895912],[-2.34231750110643,51.3483526281182],[-2.34164075887386,51.3486819031275],[-2.34059015441415,51.3485519226959],[-2.34059615242329,51.3489771866315],[-2.33991542840197,51.3491554438739],[-2.33915010534141,51.3501260742044],[-2.33858357328508,51.3502032233968],[-2.33811108077929,51.35078367495],[-2.33740955097237,51.3506813332587],[-2.33742937721836,51.3514294507557],[-2.33636932455758,51.3517319163913],[-2.33535707937972,51.3515121825784],[-2.33481382420694,51.3518428375353],[-2.33330861132996,51.3519981939676],[-2.332647181419,51.3516790670673],[-2.32817460546699,51.3542156874285],[-2.32725674198965,51.3540028123838],[-2.32543728823285,51.3542885171379],[-2.3247598844443,51.3550570390089],[-2.32369795969017,51.3555533594417],[-2.32313031912753,51.3566406872569],[-2.32134664408883,51.3570911390765],[-2.32083083604538,51.3565259799785],[-2.31969058683445,51.3566523759139],[-2.31889344106061,51.3564321821185],[-2.31683300018945,51.3569466211495],[-2.31481378595082,51.3568831901965],[-2.31283705552974,51.3575100912208],[-2.31170938922535,51.3569398713856],[-2.31021466517647,51.3575345967534],[-2.3107659752218,51.361324969138],[-2.30942307899137,51.3634497106512],[-2.30751872210451,51.3649968269988],[-2.30297422197899,51.3628551274217],[-2.29979808631897,51.3621376984378],[-2.29681493913794,51.3639076480179],[-2.29426144979217,51.3666157152935],[-2.29026067263951,51.3725956710009],[-2.29075233446575,51.3755059108053],[-2.29166879128053,51.3770156919087],[-2.29152157041299,51.3780192795726],[-2.29257889900032,51.3785117239187],[-2.29308166422913,51.3800678487268],[-2.29468668887316,51.3824009645646],[-2.29740823841531,51.3846545756547],[-2.29629765672794,51.3872102125856],[-2.29576019528375,51.3905580634398],[-2.29667741350415,51.3948930293451],[-2.29370792492977,51.3955767249168],[-2.29146426486314,51.3954513393901],[-2.29093697618605,51.3959400115069],[-2.28734914545558,51.3960553644331],[-2.28458951665271,51.3969356821102],[-2.28279904465724,51.3968595590135],[-2.28191115864131,51.3972104102944],[-2.28460133516473,51.3979376108554],[-2.28666708150814,51.4007227122067],[-2.28753764263669,51.4029463986139],[-2.29080374096335,51.4057164977673],[-2.28884314567633,51.4065567041285],[-2.2880690387763,51.4076024739747],[-2.28640832791416,51.4075833632955],[-2.2853482470656,51.4079706290683],[-2.28468619706821,51.4087869018108],[-2.28390495484435,51.4090729434212],[-2.28409886952304,51.4094370854403],[-2.28201931065643,51.4103134264496],[-2.28169695502559,51.4108521790787],[-2.28233677737105,51.4110826189307],[-2.28242703227447,51.4115889934256],[-2.28207701314298,51.4119558025545],[-2.28275265033436,51.4119289906667],[-2.2829492928186,51.4123385359252],[-2.28238959660602,51.4127472159988],[-2.28081013081824,51.4128760121911],[-2.28053963574701,51.4133181555833],[-2.27966512393338,51.4135117780609],[-2.28026242128162,51.4136029596089],[-2.27935682095561,51.4141230533319],[-2.27977418768177,51.4144178804967],[-2.27854748377854,51.4159104706364],[-2.28054932186624,51.4177647084817],[-2.28079517165924,51.4189514697186],[-2.28232389898089,51.4207993493641],[-2.28237059848989,51.4213525846637],[-2.28488500384064,51.4234873033745],[-2.28546007014896,51.4232197446476],[-2.28653426448949,51.4233773444839],[-2.28777159534874,51.4242954085872],[-2.29126390346856,51.4255932389044],[-2.29301751761646,51.4260703560279],[-2.29535024778849,51.4262523417697],[-2.29464220744988,51.4288037084834],[-2.28906490884648,51.4462049655351],[-2.28806857688916,51.4545813115611],[-2.28524589422795,51.45793844663],[-2.28674894877707,51.4570424679153],[-2.287753948521,51.4568700165149],[-2.28924426357843,51.4576513638497],[-2.29333559373865,51.4577841086448],[-2.29574294629382,51.458590038425],[-2.29459368914811,51.4638476266153],[-2.29458088870396,51.4667853056232],[-2.29400496905361,51.4672273109333],[-2.29282019265556,51.4674577959602],[-2.29340078058571,51.4686504572959],[-2.29161583625875,51.4729672677713],[-2.29124505387942,51.4755731455472],[-2.29034021187542,51.4770751368313],[-2.28885097878328,51.4781497835667],[-2.28963282709083,51.4788330011501],[-2.29058578395123,51.4853523210767],[-2.29133699917429,51.4866281635854],[-2.29059060577932,51.4865796798171],[-2.29055781500036,51.4868576144909],[-2.29132009710892,51.4873681874237],[-2.29231946172596,51.4868999719551],[-2.2930208992507,51.4871220461027],[-2.29369208570278,51.4869037270291],[-2.29558021381815,51.4877936603609],[-2.29746428226236,51.487828439973],[-2.3005111017651,51.4872766384258],[-2.30178109536268,51.4863553146149],[-2.30422455223767,51.4858409269283],[-2.30440230518338,51.4863575185086],[-2.30842817725849,51.4875078337697],[-2.30971570345501,51.4881473347943],[-2.31042447238814,51.4881571441623],[-2.3115304857608,51.487257996752],[-2.3117181839854,51.4880880577677],[-2.31311289562413,51.489198673635],[-2.3137432665744,51.4905157039676],[-2.31754609431904,51.492806688562],[-2.31921816349705,51.494546885031],[-2.32427608910811,51.4975166005356],[-2.3209172626131,51.4985616032587],[-2.31189118641068,51.5028625707914],[-2.30607524029402,51.5037874530055],[-2.29739304717883,51.5062600480183],[-2.2963065178641,51.5067497893051],[-2.29719275017858,51.5080087107215],[-2.29634029509698,51.5088053716481],[-2.29669936861672,51.5090938131477],[-2.29640100530065,51.509757024026],[-2.28958742550484,51.511933150665],[-2.28129402106405,51.5156300714988],[-2.27756324751315,51.516861848027],[-2.27039654766768,51.5183649654075],[-2.26371915728532,51.5185590930405],[-2.26360188332657,51.5192193355272],[-2.26269055739435,51.5196296702079],[-2.25582265063991,51.5220733089034],[-2.25590409355189,51.5228872621644],[-2.25484810035491,51.5241146803869],[-2.25498040825379,51.5256603250953],[-2.25390030718046,51.525990601194],[-2.25334158802592,51.5267145617373],[-2.25240978443968,51.5268896664633],[-2.25213125341167,51.528186772539],[-2.25339854486546,51.5287422336173],[-2.25565692098974,51.5287814657531],[-2.25766763585652,51.5284616247383],[-2.26036196228559,51.5310595448871],[-2.26004736508814,51.5317859601238],[-2.26054595317623,51.5321269819125],[-2.26027793468644,51.5340186095792],[-2.26197169046507,51.5345043311862],[-2.26340275191437,51.5344076032094],[-2.2632862031663,51.5347221231588],[-2.26410535566262,51.5353888034666],[-2.26569670613794,51.535431055714],[-2.26652266822564,51.5362679152795],[-2.26494940074741,51.5375566637416],[-2.26232266685064,51.541634171649],[-2.26177784798879,51.5447392072156],[-2.26397995205029,51.5454316472061],[-2.26841140596192,51.5496955435553],[-2.26689360121371,51.5513881793481],[-2.26758902958573,51.5522195729367],[-2.26717874816017,51.5525963596059],[-2.26721525940947,51.5537562827036],[-2.26784136448163,51.5538778561376],[-2.26853305804242,51.5558040689777],[-2.26773095275112,51.5582111595212],[-2.26803258670554,51.559464436608],[-2.2687492274442,51.5596856037209],[-2.26847246626582,51.5600379005524],[-2.26799768839961,51.5599567163417],[-2.26728091136057,51.5617045227047],[-2.26742757302008,51.5628515143387],[-2.26606149992054,51.5643472315002],[-2.26661153704274,51.5645608785567],[-2.26441890331796,51.5668352387542],[-2.26413231533938,51.5680192674739],[-2.26028641253826,51.5698801480534],[-2.26349034879196,51.5712738658101],[-2.26866942176221,51.5723764175419],[-2.27400093074794,51.5723449001617],[-2.27395928624084,51.5745371434194],[-2.27263015199504,51.5775574054795],[-2.27123760749592,51.5786193616029],[-2.26952585022541,51.581823413079],[-2.26892363913579,51.5816836312194],[-2.26740515657046,51.5826880725226],[-2.26707376314311,51.5824755266311],[-2.26420287489083,51.5830210824565],[-2.25681563554961,51.5827969926295],[-2.25114643460986,51.58342511991],[-2.25072568217464,51.5820545420826],[-2.2450978410726,51.5813830114117],[-2.24499590698234,51.5835476685081],[-2.24466907884177,51.583561030039],[-2.24256472178398,51.5882615100882],[-2.24159799864017,51.5896360667547],[-2.24113364070927,51.5896911530882],[-2.24190435846893,51.5920918307863],[-2.23564083327586,51.5939850026985],[-2.23054155163565,51.5950837582478],[-2.22589486440108,51.5951857882183],[-2.22253217792825,51.5961836335006],[-2.21795383833918,51.5991585490489],[-2.21275522208212,51.6012425474755],[-2.21084143685166,51.6029549389914],[-2.20751597073015,51.603414145208],[-2.20609826034126,51.6014844630308],[-2.20584317692898,51.6004745347549],[-2.20667832394276,51.5959413381716],[-2.2012639352499,51.5962141373053],[-2.19489879121744,51.5955349906451],[-2.19246035304326,51.5958129078643],[-2.19208741702448,51.5942308328624],[-2.19002396047558,51.592475639192],[-2.18331834838691,51.5949469573716],[-2.18374363691739,51.5958607351646],[-2.18106244530722,51.5965078063854],[-2.18280883756856,51.5993876442672],[-2.17952710424549,51.600014164795],[-2.17738255269105,51.5973253760223],[-2.17669187675641,51.5974710051988],[-2.17643719179915,51.5969093295869],[-2.17589182634165,51.5970363021302],[-2.17554907460715,51.5965081154903],[-2.17465216735181,51.596144672145],[-2.17089330983458,51.5957232175834],[-2.1678654484688,51.5949546912846],[-2.16768176794459,51.5945499763146],[-2.16200750960905,51.5934577730541],[-2.15812415063997,51.5935006750119],[-2.15663051321666,51.5920056853942],[-2.15423989793762,51.5913723542559],[-2.15255295284545,51.5903259195134],[-2.134519186373,51.607915228851],[-2.1206625514571,51.620602921364],[-2.11753343970583,51.6225776806344],[-2.11371910270435,51.6263231798612],[-2.10811198211806,51.6309069511912],[-2.10778881592128,51.6316412481817],[-2.10737569749964,51.6315593573244],[-2.10563865640388,51.63295741062],[-2.07347692778425,51.6594984857239],[-2.05717380115619,51.6724431312967],[-2.05467508486238,51.6713878783026],[-2.0533991445986,51.6697134042372],[-2.04708580764208,51.6669341907508],[-2.04735449639437,51.6666778101447],[-2.04609291095645,51.6659374607812],[-2.04620090597924,51.6654536402449],[-2.04078287838672,51.6618438862984],[-2.03365996035795,51.6584546286125],[-2.03341716082033,51.6586200933675],[-2.03181663388165,51.6583184360504],[-2.02799632278143,51.6567558325285],[-2.02779409015611,51.6563813308648],[-2.02554442538694,51.655271602511],[-2.02459633421616,51.6542820408092],[-2.02349898813738,51.6547466782186],[-2.02115709129654,51.6550950168449],[-2.02090231392839,51.6536686723283],[-2.02013327774402,51.6526142136227],[-2.01510144317502,51.6503682385629],[-2.01444318421627,51.6507482118478],[-2.01279697446888,51.6506796661013],[-2.01049260905087,51.6489140563251],[-2.00615386829129,51.6493489477671],[-2.00310875372608,51.6490314233674],[-2.00191009666973,51.6491410083722],[-1.99728397656326,51.6512965836745],[-1.99531096059941,51.6513768284528],[-1.99373265071767,51.6496526680394],[-1.99290158423692,51.6495033696585],[-1.99219763700454,51.6498018438682],[-1.99184355509465,51.6496049110352],[-1.9912585914475,51.6489744872354],[-1.99155122274132,51.6484887021207],[-1.99122794955501,51.6475035846017],[-1.98765487452578,51.6464131732534],[-1.98653386106786,51.6456515775688],[-1.98581165459263,51.6438706633813],[-1.98483826883352,51.6431605886503],[-1.98303168950804,51.6434786495456],[-1.98021385494388,51.6428812001493],[-1.97646853234765,51.6432529593496],[-1.97719872120297,51.6379297414434],[-1.97642833316619,51.6383173939735],[-1.97458012584983,51.638379871533],[-1.97444561471348,51.6388554883535],[-1.97301036838462,51.6389257599696],[-1.97084679902217,51.6397002267849],[-1.96989586852037,51.6396074721365],[-1.96864421271599,51.639951344159],[-1.96485063976735,51.638805503845],[-1.96032148427938,51.6389542377488],[-1.95846809897966,51.6386154382751],[-1.95728744652137,51.6379165670065],[-1.95603048296792,51.6377187469743],[-1.95536709711202,51.6379989418882],[-1.95410225115811,51.637885617553],[-1.95223291840478,51.6374065365208],[-1.95225949700391,51.636865263557],[-1.95140811027569,51.6371436520666],[-1.95067417019488,51.6370354468848],[-1.96085774136914,51.6561821111524],[-1.96124602925679,51.6568529945479],[-1.96215404885623,51.6566374913847],[-1.9629675452052,51.6586868807649],[-1.95794641933528,51.6596764341427],[-1.95865220686822,51.6611019021819],[-1.95462623348952,51.6625692743163],[-1.9549056770738,51.6653560744593],[-1.95244149488422,51.6654735363167],[-1.9518671261731,51.6671690777477],[-1.95222068296536,51.6678291850785],[-1.94946369553961,51.6674216334791],[-1.94724361754594,51.6691353162749],[-1.94512583896992,51.6698230911031],[-1.94256381165574,51.6700225620008],[-1.94205954029405,51.670416870644],[-1.94127914757489,51.6698079365356],[-1.93912111233355,51.669154251237],[-1.9385453971476,51.668131723989],[-1.9389207673356,51.6678120055566],[-1.93111349025791,51.6629760667442],[-1.92862157926056,51.6615471824623],[-1.9257191587816,51.6611225041566],[-1.92675578153091,51.660216825545],[-1.9218689125388,51.6587048952076],[-1.92184993527951,51.6580539036184],[-1.92093625899621,51.6572314720265],[-1.91528188670505,51.6558608075359],[-1.90885238181967,51.6551795392905],[-1.90881197999042,51.6564411846362],[-1.90565564427751,51.6555276658497],[-1.90387523660194,51.6560195735897],[-1.89574025664641,51.653060978539],[-1.89510735996413,51.6523321059493],[-1.8922235859708,51.6511273264295],[-1.88840448979702,51.6488650923476],[-1.88799898341584,51.6491910936129],[-1.88614968250164,51.6492804798146],[-1.88510516122977,51.6498298234463],[-1.88431785489906,51.6498850636893],[-1.88226618539058,51.6509156827091],[-1.88070331056019,51.6523770061396],[-1.87812319618187,51.6518648018304],[-1.87735061578915,51.6519645187705],[-1.87661122669359,51.6515492357626],[-1.87675976503384,51.652478118496],[-1.87626722476572,51.6529808497276],[-1.88672443957589,51.6593559356683],[-1.88667737649914,51.6600271006249],[-1.88739153016735,51.660041278047],[-1.8871068238228,51.6605840859394],[-1.88799641008536,51.6609877579293],[-1.88786879629194,51.6617330251746],[-1.8886676669828,51.6619972376497],[-1.88810722408546,51.6625500350749],[-1.88883209292131,51.6641743085275],[-1.88848216176721,51.66448372991],[-1.88920495392877,51.6648983821879],[-1.88786815824443,51.6652252949675],[-1.88843926966145,51.6658219725792],[-1.89177528789264,51.666908573465],[-1.89197990908128,51.6684274152862],[-1.89395385161887,51.670222112098],[-1.89474709372258,51.6704979659222],[-1.89676873025825,51.6727744163184],[-1.89690010339902,51.6742812237845],[-1.89849779872669,51.6767682973453],[-1.8998049489713,51.6777437332592],[-1.89965555928102,51.6788583616334],[-1.89901973881227,51.679689633965],[-1.89513193048376,51.6769632335968],[-1.89330024928573,51.6769009773333],[-1.88285150509033,51.680907828285],[-1.88233839246003,51.680602684711],[-1.87877449305748,51.6818738574244],[-1.87388423057635,51.6825898101339],[-1.87245651661481,51.6787357088928],[-1.86879547512786,51.6758653804076],[-1.86882788559989,51.6751550934196],[-1.8664191867459,51.6744339585805],[-1.86557127288774,51.6735082204486],[-1.8648947674084,51.6706238884703],[-1.86285200428617,51.6699921423141],[-1.86024088826591,51.6684201163818],[-1.86081448950716,51.6666710632008],[-1.86053806666396,51.6648594976247],[-1.85745219316084,51.6622058264345],[-1.85502957686017,51.6621795685204],[-1.85432947270738,51.6619252318084],[-1.85326783414124,51.6609823229666],[-1.8536689953596,51.6607670293068],[-1.85313764550588,51.6605550657986],[-1.85286317259377,51.6595906576205],[-1.8512000043231,51.6578708302006],[-1.85061102869137,51.6562857852906],[-1.84652091073201,51.6564865877174],[-1.84011032727779,51.6561335593267],[-1.83747010676184,51.6569847489539],[-1.83448619453006,51.6575069363454],[-1.81961237436083,51.6627049063944],[-1.81597677972351,51.6629592011757],[-1.81528462477523,51.6635440863429],[-1.81651279310385,51.664814709138],[-1.81687445534762,51.6680439251847],[-1.81796004245298,51.6692127047886],[-1.81762637071287,51.6694864254191],[-1.81855330561575,51.6705659369098],[-1.81834553118651,51.6711779324741],[-1.82001059598894,51.671014157447],[-1.8212313559659,51.6720482415305],[-1.82107229853633,51.6727825995728],[-1.82188545903829,51.6726687466973],[-1.82223111525621,51.6730307268583],[-1.82307542464649,51.6730441957495],[-1.82328624616454,51.6735430348114],[-1.82244793617487,51.6753969718492],[-1.82200099167017,51.6753777721221],[-1.82142019653582,51.6759327399996],[-1.8217481177535,51.6767676441204],[-1.82054121850224,51.677395743828],[-1.82075816126772,51.6777629260769],[-1.81718641975552,51.6795763806363],[-1.81575459736141,51.6797470456817],[-1.81610648748019,51.6803572168273],[-1.81587476266904,51.6813656916715],[-1.81248134528336,51.6863091979302],[-1.81365589749171,51.6878042755452],[-1.8153345043472,51.6886276669388],[-1.81699301792382,51.6913012570169],[-1.81873693486866,51.6929583846505],[-1.81939844031575,51.6943341914686],[-1.81941650672329,51.6959832433743],[-1.81872590927995,51.69682467298],[-1.81934570179056,51.6981884561012],[-1.81880087215317,51.6990423385475],[-1.81932706256537,51.6995331814232],[-1.81851428971195,51.7023354455325],[-1.81196949530617,51.7031220613336],[-1.8119466165507,51.7020044822493],[-1.80746573256356,51.6991244652549],[-1.81115199597698,51.6974794470314],[-1.80662838431236,51.6928209076293],[-1.807179998638,51.6925201527951],[-1.80615543325749,51.6905448471038],[-1.80369432511653,51.6882686220422]]]}}]}
